{
    "links": {
        "self": "http://www.neowsapp.com/rest/v1/neo/3836209?api_key=iIulBulltgU6a56xZRHN4H3l9WmuAYTsLGpBGhQ2"
    },
    "id": "3836209",
    "neo_reference_id": "3836209",
    "name": "(2018 VP8)",
    "designation": "2018 VP8",
    "nasa_jpl_url": "http://ssd.jpl.nasa.gov/sbdb.cgi?sstr=3836209",
    "absolute_magnitude_h": 20.7,
    "estimated_diameter": {
        "kilometers": {
            "estimated_diameter_min": 0.1925550782,
            "estimated_diameter_max": 0.4305662442
        },
        "meters": {
            "estimated_diameter_min": 192.5550781879,
            "estimated_diameter_max": 430.566244241
        },
        "miles": {
            "estimated_diameter_min": 0.1196481415,
            "estimated_diameter_max": 0.2675413778
        },
        "feet": {
            "estimated_diameter_min": 631.7424027221,
            "estimated_diameter_max": 1412.6189567557
        }
    },
    "is_potentially_hazardous_asteroid": false,
    "close_approach_data": [
        {
            "close_approach_date": "2018-10-20",
            "close_approach_date_full": "2018-Oct-20 05:19",
            "epoch_date_close_approach": 1540012740000,
            "relative_velocity": {
                "kilometers_per_second": "19.4284747203",
                "kilometers_per_hour": "69942.5089931621",
                "miles_per_hour": "43459.5551018901"
            },
            "miss_distance": {
                "astronomical": "0.3173173078",
                "lunar": "123.4364327342",
                "kilometers": "47469993.361014386",
                "miles": "29496486.1042990868"
            },
            "orbiting_body": "Earth"
        },
        {
            "close_approach_date": "2028-09-23",
            "close_approach_date_full": "2028-Sep-23 12:23",
            "epoch_date_close_approach": 1853324580000,
            "relative_velocity": {
                "kilometers_per_second": "17.641470944",
                "kilometers_per_hour": "63509.29539849",
                "miles_per_hour": "39462.2063546895"
            },
            "miss_distance": {
                "astronomical": "0.4470527939",
                "lunar": "173.9035368271",
                "kilometers": "66878145.744988993",
                "miles": "41556152.7815263834"
            },
            "orbiting_body": "Earth"
        }
    ],
    "orbital_data": {
        "orbit_id": "5",
        "orbit_determination_date": "2018-12-19 07:03:17",
        "first_observation_date": "2018-11-06",
        "last_observation_date": "2018-12-10",
        "data_arc_in_days": 34,
        "observations_used": 34,
        "orbit_uncertainty": "7",
        "minimum_orbit_intersection": ".131867",
        "jupiter_tisserand_invariant": "3.350",
        "epoch_osculation": "2459000.5",
        "eccentricity": ".4964727955536945",
        "semi_major_axis": "2.215013421609553",
        "inclination": "27.90536995193702",
        "ascending_node_longitude": "19.20496114240688",
        "orbital_period": "1204.101146889749",
        "perihelion_distance": "1.115319515994104",
        "perihelion_argument": "342.425085931858",
        "aphelion_distance": "3.314707327225001",
        "perihelion_time": "2458403.452610504398",
        "mean_anomaly": "178.5041570416319",
        "mean_motion": ".2989782053857331",
        "equinox": "J2000",
        "orbit_class": {
            "orbit_class_type": "AMO",
            "orbit_class_description": "Near-Earth asteroid orbits similar to that of 1221 Amor",
            "orbit_class_range": "1.017 AU < q (perihelion) < 1.3 AU"
        }
    },
    "is_sentry_object": false
}